QIANFAN-113             
1 68640U 26075E   26199.77195815  .00000096  00000+0  13070-3 0  9992
2 68640  88.9922 317.7725 0002016 107.9474 252.1897 13.51018944 14079
QIANFAN-114             
1 68641U 26075F   26199.78015432  .00000084  00000+0  11078-3 0  9993
2 68641  88.9917 317.7894 0002065 104.8343 255.3037 13.51017682 14064
QIANFAN-115             
1 68642U 26075G   26199.80888433  .00000090  00000+0  12137-3 0  9990
2 68642  88.9917 317.7937 0002226 107.0904 253.0491 13.51014420 14066
QIANFAN-116             
1 68643U 26075H   26199.79654333  .00000096  00000+0  12971-3 0  9991
2 68643  88.9910 317.7527 0002045 114.8305 245.3059 13.51014988 14079
QIANFAN-117             
1 68644U 26075J   26199.78419307  .00000084  00000+0  11090-3 0  9999
2 68644  88.9915 317.7711 0002191 111.0535 249.0851 13.51012907 14076
QIANFAN-118             
1 68645U 26075K   26199.59492919  .00000091  00000+0  12176-3 0  9993
2 68645  88.9919 317.7999 0001971 102.7542 257.3830 13.51014709 14047
QIANFAN-119             
1 68646U 26075L   26199.57027370  .00000082  00000+0  10853-3 0  9997
2 68646  88.9920 317.7981 0002308 112.0891 248.0505 13.51020966 14045
QIANFAN-120             
1 68647U 26075M   26199.58272903  .00000098  00000+0  13305-3 0  9995
2 68647  88.9921 317.7824 0002453 111.7922 248.3490 13.51021469 14051
QIANFAN-121             
1 68648U 26075N   26199.60730839  .00000090  00000+0  12125-3 0  9997
2 68648  88.9919 317.7841 0002048 102.9368 257.2012 13.51013518 14059
QIANFAN-122             
1 68649U 26075P   26199.52512799  .00000082  00000+0  10904-3 0  9996
2 68649  88.9918 317.7903 0002226 112.6217 247.5170 13.51017185 14036
QIANFAN-123             
1 68650U 26075Q   26199.56631870  .00000077  00000+0  10009-3 0  9994
2 68650  88.9914 317.7751 0002361 117.1893 242.9499 13.51015564 14026
QIANFAN-124             
1 68651U 26075R   26199.59096806  .00000095  00000+0  12890-3 0  9992
2 68651  88.9917 317.7823 0002248 114.5049 245.6337 13.51016832 14051
QIANFAN-125             
1 68652U 26075S   26199.52913761  .00000083  00000+0  11065-3 0  9994
2 68652  88.9917 317.7907 0002021 103.3703 256.7674 13.51013726 14042
QIANFAN-126             
1 68653U 26075T   26199.61149398  .00000092  00000+0  12416-3 0  9993
2 68653  88.9921 317.7492 0002373 116.4683 243.6712 13.51018809 14077
QIANFAN-127             
1 69073U 26104A   26199.63062277 -.01890904  00000+0 -29988+1 0  9996
2 69073  88.9914 338.2560 0006140  29.3121 330.8375 13.54007615  9406
QIANFAN-128             
1 69074U 26104B   26199.18002306 -.01942531  00000+0 -33012+1 0  9991
2 69074  88.9887 338.3350 0009644 351.9012   8.1982 13.49707511  9325
