{"fetched_at":"2026-07-19T07:04:52.450Z","source":"https://celestrak.org/NORAD/elements/gp.php?GROUP=qianfan&FORMAT=JSON","constellation":"qianfan","records":[{"OBJECT_NAME":"QIANFAN-113","OBJECT_ID":"2026-075E","EPOCH":"2026-07-18T18:31:37.184160","CLASSIFICATION_TYPE":"U","MEAN_MOTION":13.51018944,"ECCENTRICITY":0.0002016,"INCLINATION":88.9922,"RA_OF_ASC_NODE":317.7725,"ARG_OF_PERICENTER":107.9474,"MEAN_ANOMALY":252.1897,"EPHEMERIS_TYPE":0,"NORAD_CAT_ID":68640,"ELEMENT_SET_NO":999,"REV_AT_EPOCH":1407,"BSTAR":0.0001307,"MEAN_MOTION_DOT":9.6e-7,"MEAN_MOTION_DDOT":0},{"OBJECT_NAME":"QIANFAN-114","OBJECT_ID":"2026-075F","EPOCH":"2026-07-18T18:43:25.333248","CLASSIFICATION_TYPE":"U","MEAN_MOTION":13.51017682,"ECCENTRICITY":0.0002065,"INCLINATION":88.9917,"RA_OF_ASC_NODE":317.7894,"ARG_OF_PERICENTER":104.8343,"MEAN_ANOMALY":255.3037,"EPHEMERIS_TYPE":0,"NORAD_CAT_ID":68641,"ELEMENT_SET_NO":999,"REV_AT_EPOCH":1406,"BSTAR":0.00011078,"MEAN_MOTION_DOT":8.4e-7,"MEAN_MOTION_DDOT":0},{"OBJECT_NAME":"QIANFAN-115","OBJECT_ID":"2026-075G","EPOCH":"2026-07-18T19:24:47.606112","CLASSIFICATION_TYPE":"U","MEAN_MOTION":13.5101442,"ECCENTRICITY":0.0002226,"INCLINATION":88.9917,"RA_OF_ASC_NODE":317.7937,"ARG_OF_PERICENTER":107.0904,"MEAN_ANOMALY":253.0491,"EPHEMERIS_TYPE":0,"NORAD_CAT_ID":68642,"ELEMENT_SET_NO":999,"REV_AT_EPOCH":1406,"BSTAR":0.00012137,"MEAN_MOTION_DOT":9e-7,"MEAN_MOTION_DDOT":0},{"OBJECT_NAME":"QIANFAN-116","OBJECT_ID":"2026-075H","EPOCH":"2026-07-18T19:07:01.343712","CLASSIFICATION_TYPE":"U","MEAN_MOTION":13.51014988,"ECCENTRICITY":0.0002045,"INCLINATION":88.991,"RA_OF_ASC_NODE":317.7527,"ARG_OF_PERICENTER":114.8305,"MEAN_ANOMALY":245.3059,"EPHEMERIS_TYPE":0,"NORAD_CAT_ID":68643,"ELEMENT_SET_NO":999,"REV_AT_EPOCH":1407,"BSTAR":0.00012971,"MEAN_MOTION_DOT":9.6e-7,"MEAN_MOTION_DDOT":0},{"OBJECT_NAME":"QIANFAN-117","OBJECT_ID":"2026-075J","EPOCH":"2026-07-18T18:49:14.281248","CLASSIFICATION_TYPE":"U","MEAN_MOTION":13.51012907,"ECCENTRICITY":0.0002191,"INCLINATION":88.9915,"RA_OF_ASC_NODE":317.7711,"ARG_OF_PERICENTER":111.0535,"MEAN_ANOMALY":249.0851,"EPHEMERIS_TYPE":0,"NORAD_CAT_ID":68644,"ELEMENT_SET_NO":999,"REV_AT_EPOCH":1407,"BSTAR":0.0001109,"MEAN_MOTION_DOT":8.4e-7,"MEAN_MOTION_DDOT":0},{"OBJECT_NAME":"QIANFAN-118","OBJECT_ID":"2026-075K","EPOCH":"2026-07-18T14:16:41.882016","CLASSIFICATION_TYPE":"U","MEAN_MOTION":13.51014709,"ECCENTRICITY":0.00019715,"INCLINATION":88.9919,"RA_OF_ASC_NODE":317.7999,"ARG_OF_PERICENTER":102.7542,"MEAN_ANOMALY":257.383,"EPHEMERIS_TYPE":0,"NORAD_CAT_ID":68645,"ELEMENT_SET_NO":999,"REV_AT_EPOCH":1404,"BSTAR":0.00012176026,"MEAN_MOTION_DOT":9.1e-7,"MEAN_MOTION_DDOT":0},{"OBJECT_NAME":"QIANFAN-119","OBJECT_ID":"2026-075L","EPOCH":"2026-07-18T13:41:11.647680","CLASSIFICATION_TYPE":"U","MEAN_MOTION":13.51020966,"ECCENTRICITY":0.00023085,"INCLINATION":88.992,"RA_OF_ASC_NODE":317.7981,"ARG_OF_PERICENTER":112.0891,"MEAN_ANOMALY":248.0505,"EPHEMERIS_TYPE":0,"NORAD_CAT_ID":68646,"ELEMENT_SET_NO":999,"REV_AT_EPOCH":1404,"BSTAR":0.00010853045,"MEAN_MOTION_DOT":8.2e-7,"MEAN_MOTION_DDOT":0},{"OBJECT_NAME":"QIANFAN-120","OBJECT_ID":"2026-075M","EPOCH":"2026-07-18T13:59:07.788192","CLASSIFICATION_TYPE":"U","MEAN_MOTION":13.51021469,"ECCENTRICITY":0.00024536,"INCLINATION":88.9921,"RA_OF_ASC_NODE":317.7824,"ARG_OF_PERICENTER":111.7922,"MEAN_ANOMALY":248.349,"EPHEMERIS_TYPE":0,"NORAD_CAT_ID":68647,"ELEMENT_SET_NO":999,"REV_AT_EPOCH":1405,"BSTAR":0.00013305132,"MEAN_MOTION_DOT":9.8e-7,"MEAN_MOTION_DDOT":0},{"OBJECT_NAME":"QIANFAN-121","OBJECT_ID":"2026-075N","EPOCH":"2026-07-18T14:34:31.444896","CLASSIFICATION_TYPE":"U","MEAN_MOTION":13.51013518,"ECCENTRICITY":0.00020486,"INCLINATION":88.9919,"RA_OF_ASC_NODE":317.7841,"ARG_OF_PERICENTER":102.9368,"MEAN_ANOMALY":257.2012,"EPHEMERIS_TYPE":0,"NORAD_CAT_ID":68648,"ELEMENT_SET_NO":999,"REV_AT_EPOCH":1405,"BSTAR":0.0001212484,"MEAN_MOTION_DOT":9e-7,"MEAN_MOTION_DDOT":0},{"OBJECT_NAME":"QIANFAN-122","OBJECT_ID":"2026-075P","EPOCH":"2026-07-18T12:36:11.058336","CLASSIFICATION_TYPE":"U","MEAN_MOTION":13.51017185,"ECCENTRICITY":0.00022261,"INCLINATION":88.9918,"RA_OF_ASC_NODE":317.7903,"ARG_OF_PERICENTER":112.6217,"MEAN_ANOMALY":247.517,"EPHEMERIS_TYPE":0,"NORAD_CAT_ID":68649,"ELEMENT_SET_NO":999,"REV_AT_EPOCH":1403,"BSTAR":0.00010904202,"MEAN_MOTION_DOT":8.2e-7,"MEAN_MOTION_DDOT":0},{"OBJECT_NAME":"QIANFAN-123","OBJECT_ID":"2026-075Q","EPOCH":"2026-07-18T13:35:29.935680","CLASSIFICATION_TYPE":"U","MEAN_MOTION":13.51015564,"ECCENTRICITY":0.00023612,"INCLINATION":88.9914,"RA_OF_ASC_NODE":317.7751,"ARG_OF_PERICENTER":117.1893,"MEAN_ANOMALY":242.9499,"EPHEMERIS_TYPE":0,"NORAD_CAT_ID":68650,"ELEMENT_SET_NO":999,"REV_AT_EPOCH":1402,"BSTAR":0.0001000938,"MEAN_MOTION_DOT":7.7e-7,"MEAN_MOTION_DDOT":0},{"OBJECT_NAME":"QIANFAN-124","OBJECT_ID":"2026-075R","EPOCH":"2026-07-18T14:10:59.640384","CLASSIFICATION_TYPE":"U","MEAN_MOTION":13.51016832,"ECCENTRICITY":0.00022483,"INCLINATION":88.9917,"RA_OF_ASC_NODE":317.7823,"ARG_OF_PERICENTER":114.5049,"MEAN_ANOMALY":245.6337,"EPHEMERIS_TYPE":0,"NORAD_CAT_ID":68651,"ELEMENT_SET_NO":999,"REV_AT_EPOCH":1405,"BSTAR":0.00012890268,"MEAN_MOTION_DOT":9.5e-7,"MEAN_MOTION_DDOT":0},{"OBJECT_NAME":"QIANFAN-125","OBJECT_ID":"2026-075S","EPOCH":"2026-07-18T12:41:57.489504","CLASSIFICATION_TYPE":"U","MEAN_MOTION":13.51013726,"ECCENTRICITY":0.00020211,"INCLINATION":88.9917,"RA_OF_ASC_NODE":317.7907,"ARG_OF_PERICENTER":103.3703,"MEAN_ANOMALY":256.7674,"EPHEMERIS_TYPE":0,"NORAD_CAT_ID":68652,"ELEMENT_SET_NO":999,"REV_AT_EPOCH":1404,"BSTAR":0.00011064694,"MEAN_MOTION_DOT":8.3e-7,"MEAN_MOTION_DDOT":0},{"OBJECT_NAME":"QIANFAN-126","OBJECT_ID":"2026-075T","EPOCH":"2026-07-18T14:40:33.079872","CLASSIFICATION_TYPE":"U","MEAN_MOTION":13.51018809,"ECCENTRICITY":0.00023738,"INCLINATION":88.9921,"RA_OF_ASC_NODE":317.7492,"ARG_OF_PERICENTER":116.4683,"MEAN_ANOMALY":243.6712,"EPHEMERIS_TYPE":0,"NORAD_CAT_ID":68653,"ELEMENT_SET_NO":999,"REV_AT_EPOCH":1407,"BSTAR":0.00012416109,"MEAN_MOTION_DOT":9.2e-7,"MEAN_MOTION_DDOT":0},{"OBJECT_NAME":"QIANFAN-127","OBJECT_ID":"2026-104A","EPOCH":"2026-07-18T15:08:05.807328","CLASSIFICATION_TYPE":"U","MEAN_MOTION":13.54007615,"ECCENTRICITY":0.000614,"INCLINATION":88.9914,"RA_OF_ASC_NODE":338.256,"ARG_OF_PERICENTER":29.3121,"MEAN_ANOMALY":330.8375,"EPHEMERIS_TYPE":0,"NORAD_CAT_ID":69073,"ELEMENT_SET_NO":999,"REV_AT_EPOCH":940,"BSTAR":-2.9988,"MEAN_MOTION_DOT":-0.01890904,"MEAN_MOTION_DDOT":0},{"OBJECT_NAME":"QIANFAN-128","OBJECT_ID":"2026-104B","EPOCH":"2026-07-18T04:19:13.992384","CLASSIFICATION_TYPE":"U","MEAN_MOTION":13.49707511,"ECCENTRICITY":0.0009644,"INCLINATION":88.9887,"RA_OF_ASC_NODE":338.335,"ARG_OF_PERICENTER":351.9012,"MEAN_ANOMALY":8.1982,"EPHEMERIS_TYPE":0,"NORAD_CAT_ID":69074,"ELEMENT_SET_NO":999,"REV_AT_EPOCH":932,"BSTAR":-3.3012,"MEAN_MOTION_DOT":-0.01942531,"MEAN_MOTION_DDOT":0}]}
